#dP2024  4 21  0  0  0.00000000      96 __u+U IGS20 FIT  IAC
## 2311      0.00000000   900.00000000 60421 0.0000000000000
+  117   C06C07C08C09C10C11C12C13C14C16C19C20C21C22C23C24C25
+        C26C27C28C29C30C32C33C34C35C36C37C38C39C40C41C42C43
+        C44C45C46E02E03E04E05E07E08E09E10E11E12E13E14E15E19
+        E21E24E25E26E27E30E31E33E34E36G02G03G04G05G06G07G08
+        G09G10G11G12G13G14G15G16G17G18G19G20G21G22G23G24G25
+        G26G27G28G29G30G31G32J02J03J04R01R02R03R04R05R08R09
+        R11R12R13R14R15R16R17R18R19R20R21R22R24R25R26  0  0
++         9  9  8  9  9  7  7  9  8  9  6  6  8  5  8  7  8
++         8  7  8  7  7  6  6  6  7  6  7 10  8  8  8  6  5
++         7  6  6  5  4  5  3  5  6  5  7  6  7  5  6  6  7
++         6  6  5  6  7  6  6  6  7  6  6  6  7  6  6  7  6
++         7  6  6  5  6  6  5  6  5  5  5  6  6  5  5  4  5
++         7  6  6  6  5  5  5  8  7  0  7  6  6  6  7  6  7
++         6  7  8  7  6  7  6  6  6  5  5  6  6  7  5  0  0
%c M  cc GPS ccc cccc cccc cccc cccc ccccc ccccc ccccc ccccc
%c cc cc ccc ccc cccc cccc cccc cccc ccccc ccccc ccccc ccccc
%f  0.0000000  0.000000000  0.00000000000  0.000000000000000
%f  0.0000000  0.000000000  0.00000000000  0.000000000000000
%i    0    0    0    0      0      0      0      0         0
%i    0    0    0    0      0      0      0      0         0
/* INFORMATION & ANALYSIS CENTER (IAC)      ULTRA-RAPID DATA
/* S/V CLOCKS ARE ALIGNED TO GNSS TIME                      
/* G:C1WC2W R:C1PC2P E:C1XC5X C:C2IC6I J:C1CC2S             
/* PCV:IGS20_2290 OL/AL:FES2004  NONE     YN ORB:CoN CLK:CoN
*  2024 04 21 17  0  0.00000000
PC06   -110.320291  36401.867261  21593.015952    363.699248
PC07 -14242.662268  26602.245785 -29434.179954   -799.610068
PC08 -17928.293703  37042.620076   8670.508052    -45.123993
PC09   3167.120432  39042.571093  16881.940364   -794.137696
PC10  -5042.625856  27527.207109 -31277.926531     79.461072
PC11  15525.631070  -5539.207477  22578.186951    523.712320
PC12  22513.114590  12002.425630  11342.614262   -235.090076
PC13 -11469.836900  37421.684845  15475.282378    432.246466
PC14  24873.919262 -11212.322561  -5673.227623    698.376242
PC16  -4318.823781  33276.750060  26036.883690   -472.711073
PC19 -18661.936816  15272.892596  14101.234466   -913.889549
PC20 -27103.996548   6462.910182  -1887.390990   -383.890928
PC21  19778.314569   7212.096006  18318.495628   -963.674205
PC22    971.436609  15849.910012  22951.121317    -30.918096
PC23   1404.143567 -26963.198376   7063.461932   -776.148702
PC24  17167.862237  -4837.388637 -21481.048257    936.524967
PC25  12437.616678 -22917.449467  -9979.661776    380.571462
PC26  11686.034899  15054.130410 -20392.291430   -280.482482
PC27 -21211.547716 -17887.614846  -2940.900217    302.197171
PC28 -10669.101052 -22611.006704  12395.385827    231.197308
PC29  -8434.935722  13910.289586 -22683.009187    271.228795
PC30 -21671.194440  -3187.520711 -17289.314558    -60.589950
PC32 -19823.833067  -7066.947841 -18318.839317   -606.648676
PC33  18610.188095 -15358.551844 -13988.786893   -970.642820
PC34  21072.938691   1738.897646  18205.921768    417.177751
PC35  11273.238261  22242.265534 -12584.276193    381.535901
PC36 -13049.082941  22486.124056  10152.047356     58.461399
PC37 -11179.489934 -15621.551579  20258.851447   -962.086210
PC38 -20873.518031  36546.738235   1012.148951    150.412895
PC39  -6626.345040  29756.324210  29302.565724     -8.074249
PC40 -19773.257493  19859.356190 -31602.801944    -66.552254
PC41   -106.513808 -16049.570990 -22768.617977   -930.081695
PC42  27134.265165  -5347.289743   3616.960493   -442.869157
PC43   9391.821067 -13260.327376  22670.873666     68.834188
PC44  21841.279282  17184.121542   2701.700832    450.563265
PC45  -1546.452766  26943.496472  -7059.743056    -81.360346
PC46 -17095.453336   5647.586152  21306.447181   -141.883430
PE02  -9857.200433  23201.887291 -15510.883561    121.299002
PE03    -45.627168  17508.250050  23868.008229   -108.741964
PE04 -20564.807598 -16464.532997 -13490.527913   -378.961492
PE05 -20177.310332   8269.468853  20029.395575   4740.673081
PE07  28656.919943   6146.776922  -4078.593928   -115.839385
PE08  19912.405183  16652.160287  14217.775448   -258.617004
PE09 -28669.781824  -6225.553386   4015.452650   -415.391486
PE10 -15733.403832 -17191.765702 -18257.349697   -618.903046
PE11 -16865.825386  -5997.145606 -23582.984040   3002.481683
PE12 -12394.787321 -24616.000494 -10770.533804  -1004.390333
PE13  16818.567395   6745.980765  23408.836169    -21.141383
PE14 -30965.087842  -2545.894661  -9194.307585     13.271347
PE15  12132.764881  24978.539831  10272.241838    -98.419931
PE19   2425.567246 -16815.395649 -24224.862860   -201.793626
PE21  22713.640126 -18905.171928  -1703.595503   -590.454549
PE24 -22718.273169   2935.545294  18717.260876   -720.157091
PE25 -22864.226234  18679.655515   2092.463039      3.603254
PE26  11457.793141 -15736.331737  22298.002107    432.400705
PE27  22819.704561  -3327.499911 -18564.609573   -330.138712
PE30   9338.815039  14206.807538 -24244.191157   -222.081702
PE31  -9469.021425 -14032.164847  24283.429628    -21.439687
PE33    -52.116494 -28141.334412   9172.737515     10.718598
PE34    447.236204  28293.204028  -8695.000340   -106.953123
PE36 -11597.567989  15135.294544 -22646.346988   -216.528125
PG02  16105.613750   1137.520485  21617.641014   -449.482445
PG03  21582.375357 -10222.732479  11343.806907    323.068274
PG04  24351.060896    102.005954 -10747.514482    343.983113
PG05 -16768.028313  -2764.055522 -20609.435709   -169.961427
PG06  -5107.226744 -25966.606666   1396.527154    311.005070
PG07   7602.297496 -18626.382154 -16587.947336   -112.310021
PG08  26117.427626   5892.158816    962.262541    135.462921
PG09  15221.799833 -10102.647964 -19376.414192    168.575957
PG10  -5924.248761  20412.430198  15926.874454    -11.703585
PG11 -11889.141481 -21080.585884 -10975.773590   -642.582051
PG12 -22197.411114   7647.655326  12079.345848   -498.615174
PG13 -22013.354252 -14077.950087  -5610.256558    644.565001
PG14   9702.268066 -21188.653833  12580.835307    381.968725
PG15 -26466.756480  -3149.317925    383.577335    150.856095
PG16  13856.799627   8107.496518 -21560.542566   -311.084456
PG17   1961.834736 -15336.395921  22002.892700    710.690409
PG18  -7130.222771  19365.772129 -16597.657587   -598.352356
PG19  -8758.378309 -17135.348485  18285.648276    471.390482
PG20  -9101.539591 -13083.768320 -21205.935359    379.352453
PG21  17125.838598   7591.295492  19646.139808    126.033469
PG22   3088.264541 -19178.335470  18663.879127     -2.789759
PG23 -15557.287983  20783.293119   5124.248182    206.522706
PG24 -16851.978002  -3562.906034  19901.124186   -461.900342
PG25 -20343.366934  16293.734762   3962.328301    494.243076
PG26   4013.384877  17474.241413 -19635.874198    163.610386
PG27  21193.101337  13172.712364  -9986.645377    -19.965170
PG28   4449.690691  25883.261878   3961.192709   -212.440777
PG29 -17950.375433   6774.736103 -18467.106012   -601.144018
PG30    116.804302 -25049.499442  -8267.672974   -401.888501
PG31  10182.234536  23397.927510  -6792.406040   -227.981760
PG32   2271.143882  16052.438029  21283.143769   -618.309589
PJ02 -35247.312943  22384.033272  -1089.892114     -4.338324
PJ03 -20222.356043  23916.284625 -23624.088090     -0.000591
PJ04      0.000000      0.000000      0.000000 999999.999999
PR01  -8148.635323  -9591.740611 -22182.877025     83.141934
PR02 -22430.525404  -3398.806122 -11548.447317    -22.781298
PR03 -24293.827157   5141.404676   5763.767832     98.706650
PR04 -12942.858814  10228.003758  19487.147496    233.024407
PR05   5379.221955  10128.870156  22803.272953    130.322199
PR08  12687.002964 -10425.862287 -19464.109720    -75.163178
PR09   9990.250466   5419.724176 -22820.214927    182.274472
PR11  11465.236315 -22558.002384  -3132.933866     27.246979
PR12    965.550802 -20340.732935  15393.198843     39.256359
PR13  -8467.167278  -7910.829131  22709.555273    -46.588577
PR14 -14399.814844  12202.941560  17179.979243     26.409865
PR15 -11049.610538  22942.255262   1583.898436     80.342963
PR16  -1152.743489  20466.453635 -15197.397782     24.967012
PR17 -12441.172451     57.866313 -22271.351375     80.014113
PR18  -1492.424896  14488.331037 -20946.416964    138.300995
PR19   8446.034557  21670.069791 -10483.056347   -273.881398
PR20  16282.016648  16616.085521  10519.337798   -111.638376
PR21  12364.293125     79.297219  22301.947336    -94.616766
PR22   1418.507542 -15402.357396  20301.025776    115.274484
PR24 -17171.225369 -15389.819333 -10908.202569    -52.747863
PR25  12545.097677      8.468077  22209.157298    -30.691662
PR26  13672.447702 -10325.046792 -18860.889782    -23.744327
EOF
